start=new Date('2022-07-31T00:00:00.000Z').valueOf();
sats=[{"APOAPSIS":"548.156","RA_OF_ASC_NODE":"22.6460","ELEMENT_SET_NO":"999","LAUNCH_DATE":"2019-11-11","CLASSIFICATION_TYPE":"U","TIME_SYSTEM":"UTC","PERIAPSIS":"546.324","ARG_OF_PERICENTER":"82.5544","PERIOD":"95.593","MEAN_MOTION_DOT":"-0.00000323","MEAN_ELEMENT_THEORY":"SGP4","GP_ID":"209224148","REV_AT_EPOCH":"14965","FILE":"3525638","MEAN_MOTION":"15.06391420","OBJECT_TYPE":"PAYLOAD","OBJECT_NAME":"STARLINK-1038","EPHEMERIS_TYPE":"0","TLE_LINE2":"2 44743  53.0570  22.6460 0001323  82.5544 277.5595 15.06391420149657","COUNTRY_CODE":"US","MEAN_MOTION_DDOT":"0.0000000000000","CENTER_NAME":"EARTH","DECAY_DATE":null,"ECCENTRICITY":"0.00013230","TLE_LINE1":"1 44743U 19074AG  22211.84896265 -.00000323  00000-0 -28202-5 0  9998","OBJECT_ID":"2019-074AG","BSTAR":"-0.00000282020000","EPOCH":"2022-07-30T20:22:30.372960","NORAD_CAT_ID":"44743","SEMIMAJOR_AXIS":"6925.375","REF_FRAME":"TEME","INCLINATION":"53.0570","MEAN_ANOMALY":"277.5595","RCS_SIZE":"LARGE","SITE":"AFETR"},{"COUNTRY_CODE":"US","MEAN_MOTION_DDOT":"0.0000000000000","CENTER_NAME":"EARTH","EPHEMERIS_TYPE":"0","OBJECT_NAME":"STARLINK-1039","OBJECT_TYPE":"PAYLOAD","TLE_LINE2":"2 44744  53.0565  22.5911 0001359 115.8722 244.2407 15.06401392149562","ARG_OF_PERICENTER":"115.8722","PERIAPSIS":"546.268","TIME_SYSTEM":"UTC","GP_ID":"209224398","MEAN_MOTION":"15.06401392","FILE":"3525638","REV_AT_EPOCH":"14956","MEAN_MOTION_DOT":"-0.00000640","PERIOD":"95.592","MEAN_ELEMENT_THEORY":"SGP4","RA_OF_ASC_NODE":"22.5911","APOAPSIS":"548.150","LAUNCH_DATE":"2019-11-11","CLASSIFICATION_TYPE":"U","ELEMENT_SET_NO":"999","MEAN_ANOMALY":"244.2407","INCLINATION":"53.0565","RCS_SIZE":"LARGE","SITE":"AFETR","REF_FRAME":"TEME","TLE_LINE1":"1 44744U 19074AH  22211.86001246 -.00000640  00000-0 -24047-4 0  9992","ECCENTRICITY":"0.00013590","DECAY_DATE":null,"SEMIMAJOR_AXIS":"6925.344","NORAD_CAT_ID":"44744","EPOCH":"2022-07-30T20:38:25.076544","BSTAR":"-0.00002404700000","OBJECT_ID":"2019-074AH"},{"EPOCH":"2022-07-30T18:41:38.345856","BSTAR":"0.00003053100000","OBJECT_ID":"2019-074AK","SEMIMAJOR_AXIS":"6925.337","NORAD_CAT_ID":"44746","DECAY_DATE":null,"ECCENTRICITY":"0.00014720","TLE_LINE1":"1 44746U 19074AK  22211.77891604  .00000173  00000-0  30531-4 0  9993","SITE":"AFETR","RCS_SIZE":"LARGE","INCLINATION":"53.0560","MEAN_ANOMALY":"279.1915","REF_FRAME":"TEME","MEAN_ELEMENT_THEORY":"SGP4","PERIOD":"95.592","MEAN_MOTION_DOT":"0.00000173","REV_AT_EPOCH":"14955","GP_ID":"209224649","FILE":"3525638","MEAN_MOTION":"15.06403711","TIME_SYSTEM":"UTC","ARG_OF_PERICENTER":"80.9241","PERIAPSIS":"546.183","ELEMENT_SET_NO":"999","LAUNCH_DATE":"2019-11-11","CLASSIFICATION_TYPE":"U","RA_OF_ASC_NODE":"22.9609","APOAPSIS":"548.222","CENTER_NAME":"EARTH","MEAN_MOTION_DDOT":"0.0000000000000","COUNTRY_CODE":"US","TLE_LINE2":"2 44746  53.0560  22.9609 0001472  80.9241 279.1915 15.06403711149558","OBJECT_TYPE":"PAYLOAD","EPHEMERIS_TYPE":"0","OBJECT_NAME":"STARLINK-1041"},{"APOAPSIS":"548.191","RA_OF_ASC_NODE":"23.1329","CLASSIFICATION_TYPE":"U","LAUNCH_DATE":"2019-11-11","ELEMENT_SET_NO":"999","PERIAPSIS":"546.287","ARG_OF_PERICENTER":"89.4968","TIME_SYSTEM":"UTC","GP_ID":"209224900","FILE":"3525638","REV_AT_EPOCH":"14955","MEAN_MOTION":"15.06391713","MEAN_ELEMENT_THEORY":"SGP4","PERIOD":"95.593","MEAN_MOTION_DOT":"0.00000016","OBJECT_NAME":"STARLINK-1042","EPHEMERIS_TYPE":"0","OBJECT_TYPE":"PAYLOAD","TLE_LINE2":"2 44747  53.0560  23.1329 0001375  89.4968 270.6178 15.06391713149558","COUNTRY_CODE":"US","MEAN_MOTION_DDOT":"0.0000000000000","CENTER_NAME":"EARTH","TLE_LINE1":"1 44747U 19074AL  22211.74206572  .00000016  00000-0  19940-4 0  9992","ECCENTRICITY":"0.00013750","DECAY_DATE":null,"NORAD_CAT_ID":"44747","SEMIMAJOR_AXIS":"6925.374","OBJECT_ID":"2019-074AL","BSTAR":"0.00001994000000","EPOCH":"2022-07-30T17:48:34.478208","REF_FRAME":"TEME","MEAN_ANOMALY":"270.6178","INCLINATION":"53.0560","RCS_SIZE":"LARGE","SITE":"AFETR"},{"INCLINATION":"53.0569","MEAN_ANOMALY":"273.7735","SITE":"AFETR","RCS_SIZE":"LARGE","REF_FRAME":"TEME","DECAY_DATE":null,"ECCENTRICITY":"0.00015790","TLE_LINE1":"1 44748U 19074AM  22211.77155332 -.00000135  00000-0  98154-5 0  9991","EPOCH":"2022-07-30T18:31:02.206848","BSTAR":"0.00000981540000","OBJECT_ID":"2019-074AM","SEMIMAJOR_AXIS":"6925.356","NORAD_CAT_ID":"44748","COUNTRY_CODE":"US","MEAN_MOTION_DDOT":"0.0000000000000","CENTER_NAME":"EARTH","OBJECT_TYPE":"PAYLOAD","EPHEMERIS_TYPE":"0","OBJECT_NAME":"STARLINK-1043","TLE_LINE2":"2 44748  53.0569  22.9835 0001579  86.3435 273.7735 15.06397689149559","TIME_SYSTEM":"UTC","ARG_OF_PERICENTER":"86.3435","PERIAPSIS":"546.127","MEAN_ELEMENT_THEORY":"SGP4","PERIOD":"95.592","MEAN_MOTION_DOT":"-0.00000135","GP_ID":"209223648","MEAN_MOTION":"15.06397689","FILE":"3525638","REV_AT_EPOCH":"14955","RA_OF_ASC_NODE":"22.9835","APOAPSIS":"548.314","ELEMENT_SET_NO":"999","CLASSIFICATION_TYPE":"U","LAUNCH_DATE":"2019-11-11"},{"MEAN_MOTION_DDOT":"0.0000000000000","COUNTRY_CODE":"US","CENTER_NAME":"EARTH","OBJECT_NAME":"STARLINK-1046","EPHEMERIS_TYPE":"0","OBJECT_TYPE":"PAYLOAD","TLE_LINE2":"2 44751  53.0570  23.5224 0001294  84.0720 276.0416 15.06387701149534","PERIAPSIS":"546.355","ARG_OF_PERICENTER":"84.0720","TIME_SYSTEM":"UTC","GP_ID":"209223898","REV_AT_EPOCH":"14953","FILE":"3525638","MEAN_MOTION":"15.06387701","MEAN_ELEMENT_THEORY":"SGP4","PERIOD":"95.593","MEAN_MOTION_DOT":"-0.00000268","APOAPSIS":"548.147","RA_OF_ASC_NODE":"23.5224","LAUNCH_DATE":"2019-11-11","CLASSIFICATION_TYPE":"U","ELEMENT_SET_NO":"999","MEAN_ANOMALY":"276.0416","INCLINATION":"53.0570","RCS_SIZE":"LARGE","SITE":"AFETR","REF_FRAME":"TEME","TLE_LINE1":"1 44751U 19074AQ  22211.65361026 -.00000268  00000-0  92175-6 0  9996","DECAY_DATE":null,"ECCENTRICITY":"0.00012940","NORAD_CAT_ID":"44751","SEMIMAJOR_AXIS":"6925.386","OBJECT_ID":"2019-074AQ","BSTAR":"0.00000092175000","EPOCH":"2022-07-30T15:41:11.926464"},{"ELEMENT_SET_NO":"999","CLASSIFICATION_TYPE":"U","LAUNCH_DATE":"2019-11-11","APOAPSIS":"548.312","RA_OF_ASC_NODE":"2.8358","MEAN_ELEMENT_THEORY":"SGP4","PERIOD":"95.593","MEAN_MOTION_DOT":"-0.00000079","FILE":"3525638","GP_ID":"209225149","MEAN_MOTION":"15.06387973","REV_AT_EPOCH":"14983","TIME_SYSTEM":"UTC","PERIAPSIS":"546.189","ARG_OF_PERICENTER":"77.0647","TLE_LINE2":"2 44752  53.0568   2.8358 0001533  77.0647 283.0513 15.06387973149836","OBJECT_TYPE":"PAYLOAD","OBJECT_NAME":"STARLINK-1047","EPHEMERIS_TYPE":"0","CENTER_NAME":"EARTH","COUNTRY_CODE":"US","MEAN_MOTION_DDOT":"0.0000000000000","OBJECT_ID":"2019-074AR","EPOCH":"2022-07-30T19:21:28.390176","BSTAR":"0.00001362300000","NORAD_CAT_ID":"44752","SEMIMAJOR_AXIS":"6925.385","ECCENTRICITY":"0.00015330","DECAY_DATE":null,"TLE_LINE1":"1 44752U 19074AR  22211.80657859 -.00000079  00000-0  13623-4 0  9995","REF_FRAME":"TEME","RCS_SIZE":"LARGE","SITE":"AFETR","INCLINATION":"53.0568","MEAN_ANOMALY":"283.0513"},{"MEAN_MOTION_DOT":"0.00000650","PERIOD":"95.592","MEAN_ELEMENT_THEORY":"SGP4","GP_ID":"209225399","MEAN_MOTION":"15.06399465","FILE":"3525638","REV_AT_EPOCH":"15010","TIME_SYSTEM":"UTC","PERIAPSIS":"546.404","ARG_OF_PERICENTER":"94.0879","ELEMENT_SET_NO":"999","CLASSIFICATION_TYPE":"U","LAUNCH_DATE":"2019-11-11","APOAPSIS":"548.027","RA_OF_ASC_NODE":"343.1072","CENTER_NAME":"EARTH","MEAN_MOTION_DDOT":"0.0000000000000","COUNTRY_CODE":"US","TLE_LINE2":"2 44753  53.0560 343.1072 0001172  94.0879 266.0244 15.06399465150101","OBJECT_TYPE":"PAYLOAD","OBJECT_NAME":"STARLINK-1048","EPHEMERIS_TYPE":"0","OBJECT_ID":"2019-074AS","BSTAR":"0.00006251300000","EPOCH":"2022-07-30T17:53:52.979712","NORAD_CAT_ID":"44753","SEMIMAJOR_AXIS":"6925.350","DECAY_DATE":null,"ECCENTRICITY":"0.00011720","TLE_LINE1":"1 44753U 19074AS  22211.74575208  .00000650  00000-0  62513-4 0  9992","RCS_SIZE":"LARGE","SITE":"AFETR","INCLINATION":"53.0560","MEAN_ANOMALY":"266.0244","REF_FRAME":"TEME"},{"DECAY_DATE":null,"ECCENTRICITY":"0.00014450","TLE_LINE1":"1 44754U 19074AT  22211.74944711  .00000311  00000-0  39782-4 0  9998","EPOCH":"2022-07-30T17:59:12.230304","BSTAR":"0.00003978200000","OBJECT_ID":"2019-074AT","SEMIMAJOR_AXIS":"6925.376","NORAD_CAT_ID":"44754","REF_FRAME":"TEME","INCLINATION":"53.0559","MEAN_ANOMALY":"279.3098","RCS_SIZE":"LARGE","SITE":"AFETR","RA_OF_ASC_NODE":"343.0913","APOAPSIS":"548.242","ELEMENT_SET_NO":"999","LAUNCH_DATE":"2019-11-11","CLASSIFICATION_TYPE":"U","TIME_SYSTEM":"UTC","ARG_OF_PERICENTER":"80.8055","PERIAPSIS":"546.240","PERIOD":"95.593","MEAN_ELEMENT_THEORY":"SGP4","MEAN_MOTION_DOT":"0.00000311","GP_ID":"209224149","MEAN_MOTION":"15.06391005","FILE":"3525638","REV_AT_EPOCH":"15010","OBJECT_TYPE":"PAYLOAD","EPHEMERIS_TYPE":"0","OBJECT_NAME":"STARLINK-1049","TLE_LINE2":"2 44754  53.0559 343.0913 0001445  80.8055 279.3098 15.06391005150101","COUNTRY_CODE":"US","MEAN_MOTION_DDOT":"0.0000000000000","CENTER_NAME":"EARTH"},{"CENTER_NAME":"EARTH","COUNTRY_CODE":"US","MEAN_MOTION_DDOT":"0.0000000000000","TLE_LINE2":"2 44757  53.0567   2.7842 0001462  85.0007 275.1149 15.06402397149832","OBJECT_TYPE":"PAYLOAD","EPHEMERIS_TYPE":"0","OBJECT_NAME":"STARLINK-1052","PERIOD":"95.592","MEAN_MOTION_DOT":"0.00000909","MEAN_ELEMENT_THEORY":"SGP4","GP_ID":"209224399","REV_AT_EPOCH":"14983","FILE":"3525638","MEAN_MOTION":"15.06402397","TIME_SYSTEM":"UTC","ARG_OF_PERICENTER":"85.0007","PERIAPSIS":"546.194","ELEMENT_SET_NO":"999","CLASSIFICATION_TYPE":"U","LAUNCH_DATE":"2019-11-11","RA_OF_ASC_NODE":"2.7842","APOAPSIS":"548.219","RCS_SIZE":"LARGE","SITE":"AFETR","INCLINATION":"53.0567","MEAN_ANOMALY":"275.1149","REF_FRAME":"TEME","BSTAR":"0.00007987800000","EPOCH":"2022-07-30T19:37:22.727424","OBJECT_ID":"2019-074AW","SEMIMAJOR_AXIS":"6925.341","NORAD_CAT_ID":"44757","ECCENTRICITY":"0.00014620","DECAY_DATE":null,"TLE_LINE1":"1 44757U 19074AW  22211.81762416  .00000909  00000-0  79878-4 0  9992"}];
